start=new Date('2023-02-21T00:00:00.000Z').valueOf();
sats=[{"ELEMENT_SET_NO":"999","EPHEMERIS_TYPE":"0","REV_AT_EPOCH":"4757","EPOCH":"2023-02-20T18:21:05.645952","ECCENTRICITY":"0.00013210","OBJECT_TYPE":"PAYLOAD","GP_ID":"226177754","NORAD_CAT_ID":"52283","MEAN_ELEMENT_THEORY":"SGP4","PERIAPSIS":"538.825","INCLINATION":"53.2141","RCS_SIZE":"LARGE","TLE_LINE1":"1 52283U 22041Y   23051.76464868  .00001140  00000-0  89687-4 0  9997","LAUNCH_DATE":"2022-04-21","CENTER_NAME":"EARTH","TIME_SYSTEM":"UTC","DECAY_DATE":null,"ARG_OF_PERICENTER":"94.3261","TLE_LINE2":"2 52283  53.2141  65.2429 0001321  94.3261 265.7882 15.08842079 47573","RA_OF_ASC_NODE":"65.2429","BSTAR":"0.00008968700000","MEAN_ANOMALY":"265.7882","OBJECT_ID":"2022-041Y","OBJECT_NAME":"STARLINK-3789","MEAN_MOTION":"15.08842079","FILE":"3816614","REF_FRAME":"TEME","APOAPSIS":"540.653","MEAN_MOTION_DDOT":"0.0000000000000","CLASSIFICATION_TYPE":"U","SEMIMAJOR_AXIS":"6917.874","SITE":"AFETR","COUNTRY_CODE":"US","PERIOD":"95.437","MEAN_MOTION_DOT":"0.00001140"},{"ECCENTRICITY":"0.00013850","EPOCH":"2023-02-20T06:42:55.205568","EPHEMERIS_TYPE":"0","ELEMENT_SET_NO":"999","REV_AT_EPOCH":"4641","NORAD_CAT_ID":"52284","MEAN_ELEMENT_THEORY":"SGP4","OBJECT_TYPE":"PAYLOAD","GP_ID":"226157657","TLE_LINE1":"1 52284U 22041Z   23051.27980562  .00002605  00000-0  18163-3 0  9995","TIME_SYSTEM":"UTC","LAUNCH_DATE":"2022-04-21","CENTER_NAME":"EARTH","RCS_SIZE":"LARGE","PERIAPSIS":"538.755","INCLINATION":"53.2178","TLE_LINE2":"2 52284  53.2178  57.4147 0001385  87.7856 272.3295 15.08850532 46417","RA_OF_ASC_NODE":"57.4147","DECAY_DATE":null,"ARG_OF_PERICENTER":"87.7856","OBJECT_NAME":"STARLINK-3561","BSTAR":"0.00018163000000","MEAN_ANOMALY":"272.3295","OBJECT_ID":"2022-041Z","REF_FRAME":"TEME","FILE":"3815761","MEAN_MOTION":"15.08850532","APOAPSIS":"540.671","SEMIMAJOR_AXIS":"6917.848","MEAN_MOTION_DDOT":"0.0000000000000","CLASSIFICATION_TYPE":"U","SITE":"AFETR","COUNTRY_CODE":"US","MEAN_MOTION_DOT":"0.00002605","PERIOD":"95.437"},{"NORAD_CAT_ID":"52285","MEAN_ELEMENT_THEORY":"SGP4","GP_ID":"226158908","OBJECT_TYPE":"PAYLOAD","ECCENTRICITY":"0.00041020","EPOCH":"2023-02-20T08:43:29.430912","EPHEMERIS_TYPE":"0","ELEMENT_SET_NO":"999","REV_AT_EPOCH":"4629","TLE_LINE2":"2 52285  53.2160  67.0450 0004102  17.2839 342.8292 15.08839342 46294","RA_OF_ASC_NODE":"67.0450","DECAY_DATE":null,"ARG_OF_PERICENTER":"17.2839","TLE_LINE1":"1 52285U 22041AA  23051.36353508  .00012944  00000-0  82979-3 0  9993","TIME_SYSTEM":"UTC","CENTER_NAME":"EARTH","LAUNCH_DATE":"2022-04-21","RCS_SIZE":"LARGE","INCLINATION":"53.2160","PERIAPSIS":"536.910","REF_FRAME":"TEME","FILE":"3815761","MEAN_MOTION":"15.08839342","OBJECT_NAME":"STARLINK-3775","BSTAR":"0.00082979000000","MEAN_ANOMALY":"342.8292","OBJECT_ID":"2022-041AA","SITE":"AFETR","COUNTRY_CODE":"US","MEAN_MOTION_DOT":"0.00012944","PERIOD":"95.438","APOAPSIS":"542.585","SEMIMAJOR_AXIS":"6917.882","MEAN_MOTION_DDOT":"0.0000000000000","CLASSIFICATION_TYPE":"U"},{"NORAD_CAT_ID":"52286","MEAN_ELEMENT_THEORY":"SGP4","OBJECT_TYPE":"PAYLOAD","GP_ID":"226159159","ECCENTRICITY":"0.00011060","EPOCH":"2023-02-20T08:07:42.427200","EPHEMERIS_TYPE":"0","ELEMENT_SET_NO":"999","REV_AT_EPOCH":"4642","TLE_LINE2":"2 52286  53.2180  57.1497 0001106  87.0137 273.0982 15.08848156 46424","RA_OF_ASC_NODE":"57.1497","DECAY_DATE":null,"ARG_OF_PERICENTER":"87.0137","TLE_LINE1":"1 52286U 22041AB  23051.33868550  .00000999  00000-0  80821-4 0  9991","TIME_SYSTEM":"UTC","CENTER_NAME":"EARTH","LAUNCH_DATE":"2022-04-21","RCS_SIZE":"MEDIUM","PERIAPSIS":"538.955","INCLINATION":"53.2180","REF_FRAME":"TEME","FILE":"3815761","MEAN_MOTION":"15.08848156","OBJECT_NAME":"STARLINK-3802","BSTAR":"0.00008082100000","MEAN_ANOMALY":"273.0982","OBJECT_ID":"2022-041AB","SITE":"AFETR","COUNTRY_CODE":"US","MEAN_MOTION_DOT":"0.00000999","PERIOD":"95.437","APOAPSIS":"540.486","SEMIMAJOR_AXIS":"6917.855","MEAN_MOTION_DDOT":"0.0000000000000","CLASSIFICATION_TYPE":"U"},{"ARG_OF_PERICENTER":"88.7199","DECAY_DATE":null,"RA_OF_ASC_NODE":"66.1823","TLE_LINE2":"2 52287  53.2142  66.1823 0001429  88.7199 271.3957 15.08854015 47548","INCLINATION":"53.2142","PERIAPSIS":"538.714","RCS_SIZE":"LARGE","LAUNCH_DATE":"2022-04-21","CENTER_NAME":"EARTH","TIME_SYSTEM":"UTC","TLE_LINE1":"1 52287U 22041AC  23051.55488332  .00006699  00000-0  43842-3 0  9996","OBJECT_TYPE":"PAYLOAD","GP_ID":"226131986","MEAN_ELEMENT_THEORY":"SGP4","NORAD_CAT_ID":"52287","REV_AT_EPOCH":"4754","ELEMENT_SET_NO":"999","EPHEMERIS_TYPE":"0","EPOCH":"2023-02-20T13:19:01.918848","ECCENTRICITY":"0.00014290","PERIOD":"95.437","MEAN_MOTION_DOT":"0.00006699","COUNTRY_CODE":"US","SITE":"AFETR","CLASSIFICATION_TYPE":"U","MEAN_MOTION_DDOT":"0.0000000000000","SEMIMAJOR_AXIS":"6917.838","APOAPSIS":"540.691","MEAN_MOTION":"15.08854015","FILE":"3815638","REF_FRAME":"TEME","MEAN_ANOMALY":"271.3957","OBJECT_ID":"2022-041AC","BSTAR":"0.00043842000000","OBJECT_NAME":"STARLINK-3822"},{"TLE_LINE1":"1 52288U 22041AD  23051.33500631  .00001753  00000-0  12815-3 0  9992","LAUNCH_DATE":"2022-04-21","CENTER_NAME":"EARTH","TIME_SYSTEM":"UTC","INCLINATION":"53.2157","PERIAPSIS":"538.846","RCS_SIZE":"LARGE","TLE_LINE2":"2 52288  53.2157  57.1689 0001255  88.5807 271.5329 15.08850295 46423","RA_OF_ASC_NODE":"57.1689","DECAY_DATE":null,"ARG_OF_PERICENTER":"88.5807","EPOCH":"2023-02-20T08:02:24.545184","ECCENTRICITY":"0.00012550","ELEMENT_SET_NO":"999","EPHEMERIS_TYPE":"0","REV_AT_EPOCH":"4642","MEAN_ELEMENT_THEORY":"SGP4","NORAD_CAT_ID":"52288","OBJECT_TYPE":"PAYLOAD","GP_ID":"226158158","APOAPSIS":"540.582","CLASSIFICATION_TYPE":"U","MEAN_MOTION_DDOT":"0.0000000000000","SEMIMAJOR_AXIS":"6917.849","SITE":"AFETR","COUNTRY_CODE":"US","MEAN_MOTION_DOT":"0.00001753","PERIOD":"95.437","OBJECT_NAME":"STARLINK-3776","BSTAR":"0.00012815000000","OBJECT_ID":"2022-041AD","MEAN_ANOMALY":"271.5329","FILE":"3815761","REF_FRAME":"TEME","MEAN_MOTION":"15.08850295"},{"APOAPSIS":"540.560","MEAN_MOTION_DDOT":"0.0000000000000","CLASSIFICATION_TYPE":"U","SEMIMAJOR_AXIS":"6917.823","SITE":"AFETR","COUNTRY_CODE":"US","PERIOD":"95.436","MEAN_MOTION_DOT":"0.00004109","OBJECT_NAME":"STARLINK-3751","BSTAR":"0.00027594000000","MEAN_ANOMALY":"266.1475","OBJECT_ID":"2022-041AE","FILE":"3815761","REF_FRAME":"TEME","MEAN_MOTION":"15.08858783","TLE_LINE1":"1 52289U 22041AE  23051.48219953  .00004109  00000-0  27594-3 0  9991","LAUNCH_DATE":"2022-04-21","CENTER_NAME":"EARTH","TIME_SYSTEM":"UTC","PERIAPSIS":"538.816","INCLINATION":"53.2168","RCS_SIZE":"LARGE","TLE_LINE2":"2 52289  53.2168  56.5005 0001260  93.9661 266.1475 15.08858783 46449","RA_OF_ASC_NODE":"56.5005","DECAY_DATE":null,"ARG_OF_PERICENTER":"93.9661","EPOCH":"2023-02-20T11:34:22.039392","ECCENTRICITY":"0.00012600","ELEMENT_SET_NO":"999","EPHEMERIS_TYPE":"0","REV_AT_EPOCH":"4644","NORAD_CAT_ID":"52289","MEAN_ELEMENT_THEORY":"SGP4","OBJECT_TYPE":"PAYLOAD","GP_ID":"226158408"},{"OBJECT_NAME":"STARLINK-3772","BSTAR":"0.00001031600000","OBJECT_ID":"2022-041AF","MEAN_ANOMALY":"279.3611","FILE":"3816656","REF_FRAME":"TEME","MEAN_MOTION":"15.08844375","APOAPSIS":"540.608","MEAN_MOTION_DDOT":"0.0000000000000","CLASSIFICATION_TYPE":"U","SEMIMAJOR_AXIS":"6917.867","SITE":"AFETR","COUNTRY_CODE":"US","PERIOD":"95.437","MEAN_MOTION_DOT":"-0.00000124","EPOCH":"2023-02-20T17:29:25.991520","ECCENTRICITY":"0.00012660","ELEMENT_SET_NO":"999","EPHEMERIS_TYPE":"0","REV_AT_EPOCH":"4769","NORAD_CAT_ID":"52290","MEAN_ELEMENT_THEORY":"SGP4","GP_ID":"226178177","OBJECT_TYPE":"PAYLOAD","TLE_LINE1":"1 52290U 22041AF  23051.72877305 -.00000124  00000-0  10316-4 0  9990","LAUNCH_DATE":"2022-04-21","CENTER_NAME":"EARTH","TIME_SYSTEM":"UTC","PERIAPSIS":"538.856","INCLINATION":"53.2162","RCS_SIZE":"LARGE","TLE_LINE2":"2 52290  53.2162  55.4624 0001266  80.7524 279.3611 15.08844375 47696","RA_OF_ASC_NODE":"55.4624","DECAY_DATE":null,"ARG_OF_PERICENTER":"80.7524"},{"COUNTRY_CODE":"US","SITE":"AFETR","PERIOD":"95.437","MEAN_MOTION_DOT":"0.00020864","APOAPSIS":"540.252","MEAN_MOTION_DDOT":"0.0000000000000","CLASSIFICATION_TYPE":"U","SEMIMAJOR_AXIS":"6917.838","MEAN_MOTION":"15.08853865","FILE":"3816656","REF_FRAME":"TEME","BSTAR":"0.00132460000000","MEAN_ANOMALY":"272.8687","OBJECT_ID":"2022-041AG","OBJECT_NAME":"STARLINK-3773","DECAY_DATE":null,"ARG_OF_PERICENTER":"87.2396","TLE_LINE2":"2 52291  53.2178  55.3435 0000794  87.2396 272.8687 15.08853865 47704","RA_OF_ASC_NODE":"55.3435","PERIAPSIS":"539.154","INCLINATION":"53.2178","RCS_SIZE":"LARGE","TLE_LINE1":"1 52291U 22041AG  23051.73980472  .00020864  00000-0  13246-2 0  9997","CENTER_NAME":"EARTH","LAUNCH_DATE":"2022-04-21","TIME_SYSTEM":"UTC","GP_ID":"226178185","OBJECT_TYPE":"PAYLOAD","NORAD_CAT_ID":"52291","MEAN_ELEMENT_THEORY":"SGP4","ELEMENT_SET_NO":"999","EPHEMERIS_TYPE":"0","REV_AT_EPOCH":"4770","EPOCH":"2023-02-20T17:45:19.127808","ECCENTRICITY":"0.00007940"},{"FILE":"3815761","REF_FRAME":"TEME","MEAN_MOTION":"15.08847047","OBJECT_NAME":"STARLINK-3753","BSTAR":"0.00020547000000","OBJECT_ID":"2022-041AH","MEAN_ANOMALY":"245.4110","SITE":"AFETR","COUNTRY_CODE":"US","MEAN_MOTION_DOT":"0.00002984","PERIOD":"95.437","APOAPSIS":"540.774","MEAN_MOTION_DDOT":"0.0000000000000","CLASSIFICATION_TYPE":"U","SEMIMAJOR_AXIS":"6917.859","NORAD_CAT_ID":"52292","MEAN_ELEMENT_THEORY":"SGP4","GP_ID":"226157658","OBJECT_TYPE":"PAYLOAD","EPOCH":"2023-02-20T07:41:12.939360","ECCENTRICITY":"0.00015180","ELEMENT_SET_NO":"999","EPHEMERIS_TYPE":"0","REV_AT_EPOCH":"4642","TLE_LINE2":"2 52292  53.2157  57.2366 0001518 114.7040 245.4110 15.08847047 46423","RA_OF_ASC_NODE":"57.2366","DECAY_DATE":null,"ARG_OF_PERICENTER":"114.7040","TLE_LINE1":"1 52292U 22041AH  23051.32028865  .00002984  00000-0  20547-3 0  9998","LAUNCH_DATE":"2022-04-21","CENTER_NAME":"EARTH","TIME_SYSTEM":"UTC","INCLINATION":"53.2157","PERIAPSIS":"538.674","RCS_SIZE":"LARGE"}];
